{"type":"FeatureCollection","features":[{"type":"Feature","properties":{"k":"tree"},"geometry":{"type":"Point","coordinates":[178.450175,-18.133202]}},{"type":"Feature","properties":{"k":"tree"},"geometry":{"type":"Point","coordinates":[178.445301,-18.149871]}},{"type":"Feature","properties":{"k":"tree"},"geometry":{"type":"Point","coordinates":[178.445235,-18.149944]}},{"type":"Feature","properties":{"k":"tree"},"geometry":{"type":"Point","coordinates":[178.445271,-18.150257]}},{"type":"Feature","properties":{"k":"tree"},"geometry":{"type":"Point","coordinates":[178.445038,-18.150413]}},{"type":"Feature","properties":{"k":"tree"},"geometry":{"type":"Point","coordinates":[178.445094,-18.150145]}},{"type":"Feature","properties":{"k":"tree"},"geometry":{"type":"Point","coordinates":[178.444878,-18.150088]}},{"type":"Feature","properties":{"k":"tree"},"geometry":{"type":"Point","coordinates":[178.445087,-18.150018]}},{"type":"Feature","properties":{"k":"tree"},"geometry":{"type":"Point","coordinates":[178.444819,-18.149967]}},{"type":"Feature","properties":{"k":"tree"},"geometry":{"type":"Point","coordinates":[178.44127,-18.151434]}},{"type":"Feature","properties":{"k":"tree"},"geometry":{"type":"Point","coordinates":[178.441271,-18.151504]}},{"type":"Feature","properties":{"k":"tree"},"geometry":{"type":"Point","coordinates":[178.44126,-18.151557]}},{"type":"Feature","properties":{"k":"tree"},"geometry":{"type":"Point","coordinates":[178.441175,-18.151511]}},{"type":"Feature","properties":{"k":"tree"},"geometry":{"type":"Point","coordinates":[178.441131,-18.151492]}},{"type":"Feature","properties":{"k":"tree"},"geometry":{"type":"Point","coordinates":[178.441084,-18.151457]}},{"type":"Feature","properties":{"k":"tree"},"geometry":{"type":"Point","coordinates":[178.440947,-18.15137]}},{"type":"Feature","properties":{"k":"tree"},"geometry":{"type":"Point","coordinates":[178.441184,-18.151655]}},{"type":"Feature","properties":{"k":"tree"},"geometry":{"type":"Point","coordinates":[178.440984,-18.151592]}},{"type":"Feature","properties":{"k":"tree"},"geometry":{"type":"Point","coordinates":[178.440979,-18.151516]}},{"type":"Feature","properties":{"k":"tree"},"geometry":{"type":"Point","coordinates":[178.44091,-18.151583]}},{"type":"Feature","properties":{"k":"tree"},"geometry":{"type":"Point","coordinates":[178.440863,-18.151491]}},{"type":"Feature","properties":{"k":"tree"},"geometry":{"type":"Point","coordinates":[178.440812,-18.151451]}},{"type":"Feature","properties":{"k":"tree"},"geometry":{"type":"Point","coordinates":[178.440712,-18.151375]}},{"type":"Feature","properties":{"k":"tree"},"geometry":{"type":"Point","coordinates":[178.442909,-18.149057]}},{"type":"Feature","properties":{"k":"tree"},"geometry":{"type":"Point","coordinates":[178.44813,-18.148698]}},{"type":"Feature","properties":{"k":"tree"},"geometry":{"type":"Point","coordinates":[178.448015,-18.14868]}},{"type":"Feature","properties":{"k":"tree"},"geometry":{"type":"Point","coordinates":[178.44793,-18.148663]}},{"type":"Feature","properties":{"k":"tree"},"geometry":{"type":"Point","coordinates":[178.447823,-18.148645]}},{"type":"Feature","properties":{"k":"tree"},"geometry":{"type":"Point","coordinates":[178.447513,-18.148677]}},{"type":"Feature","properties":{"k":"tree"},"geometry":{"type":"Point","coordinates":[178.447688,-18.148709]}},{"type":"Feature","properties":{"k":"tree"},"geometry":{"type":"Point","coordinates":[178.447627,-18.148929]}},{"type":"Feature","properties":{"k":"tree"},"geometry":{"type":"Point","coordinates":[178.447571,-18.149006]}},{"type":"Feature","properties":{"k":"tree"},"geometry":{"type":"Point","coordinates":[178.447863,-18.149038]}},{"type":"Feature","properties":{"k":"tree"},"geometry":{"type":"Point","coordinates":[178.444783,-18.146851]}},{"type":"Feature","properties":{"k":"tree"},"geometry":{"type":"Point","coordinates":[178.444859,-18.14674]}},{"type":"Feature","properties":{"k":"tree"},"geometry":{"type":"Point","coordinates":[178.444909,-18.146606]}},{"type":"Feature","properties":{"k":"tree"},"geometry":{"type":"Point","coordinates":[178.444921,-18.147113]}},{"type":"Feature","properties":{"k":"tree"},"geometry":{"type":"Point","coordinates":[178.444971,-18.147001]}},{"type":"Feature","properties":{"k":"tree"},"geometry":{"type":"Point","coordinates":[178.445286,-18.146865]}},{"type":"Feature","properties":{"k":"tree"},"geometry":{"type":"Point","coordinates":[178.445195,-18.14669]}},{"type":"Feature","properties":{"k":"tree"},"geometry":{"type":"Point","coordinates":[178.423481,-18.150398]}},{"type":"Feature","properties":{"k":"tree"},"geometry":{"type":"Point","coordinates":[178.426996,-18.154002]}},{"type":"Feature","properties":{"k":"tree"},"geometry":{"type":"Point","coordinates":[178.426202,-18.146303]}},{"type":"Feature","properties":{"k":"tree"},"geometry":{"type":"Point","coordinates":[178.426315,-18.146388]}},{"type":"Feature","properties":{"k":"tree"},"geometry":{"type":"Point","coordinates":[178.426341,-18.146384]}},{"type":"Feature","properties":{"k":"tree"},"geometry":{"type":"Point","coordinates":[178.426283,-18.146335]}},{"type":"Feature","properties":{"k":"tree"},"geometry":{"type":"Point","coordinates":[178.426054,-18.146324]}},{"type":"Feature","properties":{"k":"tree"},"geometry":{"type":"Point","coordinates":[178.425952,-18.146325]}},{"type":"Feature","properties":{"k":"tree"},"geometry":{"type":"Point","coordinates":[178.425861,-18.146324]}},{"type":"Feature","properties":{"k":"tree"},"geometry":{"type":"Point","coordinates":[178.425762,-18.146323]}},{"type":"Feature","properties":{"k":"tree"},"geometry":{"type":"Point","coordinates":[178.425674,-18.14632]}},{"type":"Feature","properties":{"k":"tree"},"geometry":{"type":"Point","coordinates":[178.425575,-18.146324]}},{"type":"Feature","properties":{"k":"tree"},"geometry":{"type":"Point","coordinates":[178.425476,-18.146322]}},{"type":"Feature","properties":{"k":"tree"},"geometry":{"type":"Point","coordinates":[178.425384,-18.146323]}},{"type":"Feature","properties":{"k":"tree"},"geometry":{"type":"Point","coordinates":[178.425288,-18.146325]}},{"type":"Feature","properties":{"k":"tree"},"geometry":{"type":"Point","coordinates":[178.4252,-18.146324]}},{"type":"Feature","properties":{"k":"tree"},"geometry":{"type":"Point","coordinates":[178.425094,-18.146324]}},{"type":"Feature","properties":{"k":"tree"},"geometry":{"type":"Point","coordinates":[178.424979,-18.14632]}},{"type":"Feature","properties":{"k":"tree"},"geometry":{"type":"Point","coordinates":[178.424828,-18.146323]}},{"type":"Feature","properties":{"k":"tree"},"geometry":{"type":"Point","coordinates":[178.42473,-18.146323]}},{"type":"Feature","properties":{"k":"tree"},"geometry":{"type":"Point","coordinates":[178.424636,-18.146321]}},{"type":"Feature","properties":{"k":"tree"},"geometry":{"type":"Point","coordinates":[178.424458,-18.146323]}},{"type":"Feature","properties":{"k":"tree"},"geometry":{"type":"Point","coordinates":[178.423952,-18.146233]}},{"type":"Feature","properties":{"k":"tree"},"geometry":{"type":"Point","coordinates":[178.424302,-18.146321]}},{"type":"Feature","properties":{"k":"tree"},"geometry":{"type":"Point","coordinates":[178.424002,-18.146316]}},{"type":"Feature","properties":{"k":"tree"},"geometry":{"type":"Point","coordinates":[178.423904,-18.14632]}},{"type":"Feature","properties":{"k":"tree"},"geometry":{"type":"Point","coordinates":[178.423816,-18.146326]}},{"type":"Feature","properties":{"k":"tree"},"geometry":{"type":"Point","coordinates":[178.423721,-18.146325]}},{"type":"Feature","properties":{"k":"tree"},"geometry":{"type":"Point","coordinates":[178.423621,-18.14632]}},{"type":"Feature","properties":{"k":"tree"},"geometry":{"type":"Point","coordinates":[178.42353,-18.146321]}},{"type":"Feature","properties":{"k":"tree"},"geometry":{"type":"Point","coordinates":[178.423414,-18.146719]}},{"type":"Feature","properties":{"k":"tree"},"geometry":{"type":"Point","coordinates":[178.423415,-18.146635]}},{"type":"Feature","properties":{"k":"tree"},"geometry":{"type":"Point","coordinates":[178.423408,-18.146555]}},{"type":"Feature","properties":{"k":"tree"},"geometry":{"type":"Point","coordinates":[178.423415,-18.14647]}},{"type":"Feature","properties":{"k":"tree"},"geometry":{"type":"Point","coordinates":[178.423415,-18.146425]}},{"type":"Feature","properties":{"k":"tree"},"geometry":{"type":"Point","coordinates":[178.423416,-18.146386]}},{"type":"Feature","properties":{"k":"tree"},"geometry":{"type":"Point","coordinates":[178.423173,-18.146444]}},{"type":"Feature","properties":{"k":"tree"},"geometry":{"type":"Point","coordinates":[178.423174,-18.14651]}},{"type":"Feature","properties":{"k":"tree"},"geometry":{"type":"Point","coordinates":[178.423172,-18.146583]}},{"type":"Feature","properties":{"k":"tree"},"geometry":{"type":"Point","coordinates":[178.423174,-18.146649]}},{"type":"Feature","properties":{"k":"tree"},"geometry":{"type":"Point","coordinates":[178.423178,-18.146718]}},{"type":"Feature","properties":{"k":"tree"},"geometry":{"type":"Point","coordinates":[178.423188,-18.147106]}},{"type":"Feature","properties":{"k":"tree"},"geometry":{"type":"Point","coordinates":[178.423184,-18.14704]}},{"type":"Feature","properties":{"k":"tree"},"geometry":{"type":"Point","coordinates":[178.423188,-18.146974]}},{"type":"Feature","properties":{"k":"tree"},"geometry":{"type":"Point","coordinates":[178.423178,-18.146882]}},{"type":"Feature","properties":{"k":"tree"},"geometry":{"type":"Point","coordinates":[178.423184,-18.146784]}},{"type":"Feature","properties":{"k":"tree"},"geometry":{"type":"Point","coordinates":[178.423417,-18.146801]}},{"type":"Feature","properties":{"k":"tree"},"geometry":{"type":"Point","coordinates":[178.423418,-18.146968]}},{"type":"Feature","properties":{"k":"tree"},"geometry":{"type":"Point","coordinates":[178.423424,-18.147133]}},{"type":"Feature","properties":{"k":"tree"},"geometry":{"type":"Point","coordinates":[178.423187,-18.147215]}},{"type":"Feature","properties":{"k":"tree"},"geometry":{"type":"Point","coordinates":[178.423184,-18.147292]}},{"type":"Feature","properties":{"k":"tree"},"geometry":{"type":"Point","coordinates":[178.423184,-18.147353]}},{"type":"Feature","properties":{"k":"tree"},"geometry":{"type":"Point","coordinates":[178.423184,-18.147422]}},{"type":"Feature","properties":{"k":"tree"},"geometry":{"type":"Point","coordinates":[178.423426,-18.147652]}},{"type":"Feature","properties":{"k":"tree"},"geometry":{"type":"Point","coordinates":[178.423429,-18.147609]}},{"type":"Feature","properties":{"k":"tree"},"geometry":{"type":"Point","coordinates":[178.42343,-18.147565]}},{"type":"Feature","properties":{"k":"tree"},"geometry":{"type":"Point","coordinates":[178.423425,-18.147482]}},{"type":"Feature","properties":{"k":"tree"},"geometry":{"type":"Point","coordinates":[178.423429,-18.147396]}},{"type":"Feature","properties":{"k":"tree"},"geometry":{"type":"Point","coordinates":[178.423431,-18.147312]}},{"type":"Feature","properties":{"k":"tree"},"geometry":{"type":"Point","coordinates":[178.423188,-18.147543]}},{"type":"Feature","properties":{"k":"tree"},"geometry":{"type":"Point","coordinates":[178.42318,-18.147609]}},{"type":"Feature","properties":{"k":"tree"},"geometry":{"type":"Point","coordinates":[178.423178,-18.147675]}},{"type":"Feature","properties":{"k":"tree"},"geometry":{"type":"Point","coordinates":[178.423179,-18.147737]}},{"type":"Feature","properties":{"k":"tree"},"geometry":{"type":"Point","coordinates":[178.423173,-18.147805]}},{"type":"Feature","properties":{"k":"tree"},"geometry":{"type":"Point","coordinates":[178.42317,-18.14787]}},{"type":"Feature","properties":{"k":"tree"},"geometry":{"type":"Point","coordinates":[178.42305,-18.147853]}},{"type":"Feature","properties":{"k":"tree"},"geometry":{"type":"Point","coordinates":[178.422959,-18.147831]}},{"type":"Feature","properties":{"k":"tree"},"geometry":{"type":"Point","coordinates":[178.422786,-18.147799]}},{"type":"Feature","properties":{"k":"tree"},"geometry":{"type":"Point","coordinates":[178.42379,-18.14965]}},{"type":"Feature","properties":{"k":"tree"},"geometry":{"type":"Point","coordinates":[178.42384,-18.14963]}},{"type":"Feature","properties":{"k":"tree"},"geometry":{"type":"Point","coordinates":[178.423504,-18.149725]}},{"type":"Feature","properties":{"k":"tree"},"geometry":{"type":"Point","coordinates":[178.42359,-18.149809]}},{"type":"Feature","properties":{"k":"tree"},"geometry":{"type":"Point","coordinates":[178.423703,-18.149885]}},{"type":"Feature","properties":{"k":"tree"},"geometry":{"type":"Point","coordinates":[178.423756,-18.149977]}},{"type":"Feature","properties":{"k":"tree"},"geometry":{"type":"Point","coordinates":[178.423789,-18.150024]}},{"type":"Feature","properties":{"k":"tree"},"geometry":{"type":"Point","coordinates":[178.423915,-18.15036]}},{"type":"Feature","properties":{"k":"tree"},"geometry":{"type":"Point","coordinates":[178.42391,-18.150307]}},{"type":"Feature","properties":{"k":"tree"},"geometry":{"type":"Point","coordinates":[178.423874,-18.150224]}},{"type":"Feature","properties":{"k":"tree"},"geometry":{"type":"Point","coordinates":[178.423864,-18.150175]}},{"type":"Feature","properties":{"k":"tree"},"geometry":{"type":"Point","coordinates":[178.423839,-18.150123]}},{"type":"Feature","properties":{"k":"tree"},"geometry":{"type":"Point","coordinates":[178.423948,-18.150104]}},{"type":"Feature","properties":{"k":"tree"},"geometry":{"type":"Point","coordinates":[178.423968,-18.150148]}},{"type":"Feature","properties":{"k":"tree"},"geometry":{"type":"Point","coordinates":[178.423988,-18.150197]}},{"type":"Feature","properties":{"k":"tree"},"geometry":{"type":"Point","coordinates":[178.423982,-18.150242]}},{"type":"Feature","properties":{"k":"tree"},"geometry":{"type":"Point","coordinates":[178.424,-18.150245]}},{"type":"Feature","properties":{"k":"tree"},"geometry":{"type":"Point","coordinates":[178.424012,-18.150291]}},{"type":"Feature","properties":{"k":"tree"},"geometry":{"type":"Point","coordinates":[178.424024,-18.150336]}},{"type":"Feature","properties":{"k":"tree"},"geometry":{"type":"Point","coordinates":[178.424153,-18.151034]}},{"type":"Feature","properties":{"k":"tree"},"geometry":{"type":"Point","coordinates":[178.424182,-18.151038]}},{"type":"Feature","properties":{"k":"tree"},"geometry":{"type":"Point","coordinates":[178.424085,-18.150575]}},{"type":"Feature","properties":{"k":"tree"},"geometry":{"type":"Point","coordinates":[178.424073,-18.150526]}},{"type":"Feature","properties":{"k":"tree"},"geometry":{"type":"Point","coordinates":[178.423964,-18.150508]}},{"type":"Feature","properties":{"k":"tree"},"geometry":{"type":"Point","coordinates":[178.423973,-18.150562]}},{"type":"Feature","properties":{"k":"tree"},"geometry":{"type":"Point","coordinates":[178.423982,-18.150613]}},{"type":"Feature","properties":{"k":"tree"},"geometry":{"type":"Point","coordinates":[178.423989,-18.150663]}},{"type":"Feature","properties":{"k":"tree"},"geometry":{"type":"Point","coordinates":[178.424115,-18.150735]}},{"type":"Feature","properties":{"k":"tree"},"geometry":{"type":"Point","coordinates":[178.424012,-18.150806]}},{"type":"Feature","properties":{"k":"tree"},"geometry":{"type":"Point","coordinates":[178.42414,-18.150841]}},{"type":"Feature","properties":{"k":"tree"},"geometry":{"type":"Point","coordinates":[178.424014,-18.150859]}},{"type":"Feature","properties":{"k":"tree"},"geometry":{"type":"Point","coordinates":[178.42402,-18.15091]}},{"type":"Feature","properties":{"k":"tree"},"geometry":{"type":"Point","coordinates":[178.424028,-18.150961]}},{"type":"Feature","properties":{"k":"tree"},"geometry":{"type":"Point","coordinates":[178.42404,-18.15101]}},{"type":"Feature","properties":{"k":"tree"},"geometry":{"type":"Point","coordinates":[178.424054,-18.151056]}},{"type":"Feature","properties":{"k":"tree"},"geometry":{"type":"Point","coordinates":[178.424164,-18.151357]}},{"type":"Feature","properties":{"k":"tree"},"geometry":{"type":"Point","coordinates":[178.424109,-18.15127]}},{"type":"Feature","properties":{"k":"tree"},"geometry":{"type":"Point","coordinates":[178.424083,-18.151186]}},{"type":"Feature","properties":{"k":"tree"},"geometry":{"type":"Point","coordinates":[178.424179,-18.15108]}},{"type":"Feature","properties":{"k":"tree"},"geometry":{"type":"Point","coordinates":[178.424195,-18.151131]}},{"type":"Feature","properties":{"k":"tree"},"geometry":{"type":"Point","coordinates":[178.424242,-18.151284]}},{"type":"Feature","properties":{"k":"tree"},"geometry":{"type":"Point","coordinates":[178.424217,-18.151233]}},{"type":"Feature","properties":{"k":"tree"},"geometry":{"type":"Point","coordinates":[178.42421,-18.151211]}},{"type":"Feature","properties":{"k":"tree"},"geometry":{"type":"Point","coordinates":[178.424195,-18.151391]}},{"type":"Feature","properties":{"k":"tree"},"geometry":{"type":"Point","coordinates":[178.424389,-18.151457]}},{"type":"Feature","properties":{"k":"tree"},"geometry":{"type":"Point","coordinates":[178.424476,-18.151537]}},{"type":"Feature","properties":{"k":"tree"},"geometry":{"type":"Point","coordinates":[178.424429,-18.151496]}},{"type":"Feature","properties":{"k":"tree"},"geometry":{"type":"Point","coordinates":[178.424339,-18.151409]}},{"type":"Feature","properties":{"k":"tree"},"geometry":{"type":"Point","coordinates":[178.424535,-18.151604]}},{"type":"Feature","properties":{"k":"tree"},"geometry":{"type":"Point","coordinates":[178.424507,-18.151573]}},{"type":"Feature","properties":{"k":"tree"},"geometry":{"type":"Point","coordinates":[178.424619,-18.15172]}},{"type":"Feature","properties":{"k":"tree"},"geometry":{"type":"Point","coordinates":[178.424605,-18.151911]}},{"type":"Feature","properties":{"k":"tree"},"geometry":{"type":"Point","coordinates":[178.424584,-18.151851]}},{"type":"Feature","properties":{"k":"tree"},"geometry":{"type":"Point","coordinates":[178.424615,-18.151985]}},{"type":"Feature","properties":{"k":"tree"},"geometry":{"type":"Point","coordinates":[178.424617,-18.15202]}},{"type":"Feature","properties":{"k":"tree"},"geometry":{"type":"Point","coordinates":[178.424617,-18.152059]}},{"type":"Feature","properties":{"k":"tree"},"geometry":{"type":"Point","coordinates":[178.424617,-18.152101]}},{"type":"Feature","properties":{"k":"tree"},"geometry":{"type":"Point","coordinates":[178.425505,-18.15114]}},{"type":"Feature","properties":{"k":"tree"},"geometry":{"type":"Point","coordinates":[178.425265,-18.151156]}},{"type":"Feature","properties":{"k":"tree"},"geometry":{"type":"Point","coordinates":[178.425454,-18.151048]}},{"type":"Feature","properties":{"k":"tree"},"geometry":{"type":"Point","coordinates":[178.42537,-18.150988]}},{"type":"Feature","properties":{"k":"tree"},"geometry":{"type":"Point","coordinates":[178.423406,-18.146879]}},{"type":"Feature","properties":{"k":"park"},"geometry":{"type":"Polygon","coordinates":[[[178.422748,-18.148681],[178.42314,-18.148707],[178.423136,-18.149027],[178.422733,-18.149055],[178.422748,-18.148681]]]}},{"type":"Feature","properties":{"k":"park"},"geometry":{"type":"Polygon","coordinates":[[[178.425229,-18.149986],[178.424714,-18.149766],[178.424525,-18.149684],[178.424156,-18.149521],[178.42407,-18.149497],[178.423958,-18.149529],[178.423778,-18.149587],[178.423641,-18.149611],[178.423503,-18.149603],[178.423392,-18.149587],[178.423375,-18.148233],[178.42336,-18.148035],[178.425932,-18.148445],[178.42592,-18.148683],[178.425874,-18.14875],[178.425826,-18.149001],[178.425877,-18.149238],[178.425701,-18.149366],[178.425417,-18.149627],[178.425229,-18.149986]]]}},{"type":"Feature","properties":{"k":"park"},"geometry":{"type":"Polygon","coordinates":[[[178.429658,-18.144144],[178.429659,-18.143797],[178.429354,-18.143796],[178.429355,-18.143454],[178.429033,-18.143453],[178.429033,-18.143796],[178.429185,-18.143796],[178.429185,-18.144143],[178.429658,-18.144144]]]}},{"type":"Feature","properties":{"k":"park"},"geometry":{"type":"Polygon","coordinates":[[[178.439121,-18.137452],[178.439018,-18.137648],[178.439138,-18.137941],[178.439274,-18.13805],[178.439422,-18.137605],[178.439121,-18.137452]]]}},{"type":"Feature","properties":{"k":"park"},"geometry":{"type":"Polygon","coordinates":[[[178.425932,-18.148445],[178.427233,-18.148667],[178.427165,-18.149107],[178.426925,-18.149148],[178.426567,-18.149525],[178.426161,-18.149334],[178.425877,-18.149238],[178.425826,-18.149001],[178.425874,-18.14875],[178.42592,-18.148683],[178.425929,-18.148463],[178.425932,-18.148445]]]}},{"type":"Feature","properties":{"k":"park"},"geometry":{"type":"Polygon","coordinates":[[[178.444904,-18.127626],[178.445222,-18.126615],[178.445951,-18.126468],[178.445994,-18.126713],[178.446303,-18.126696],[178.446483,-18.127047],[178.446071,-18.128026],[178.445514,-18.127789],[178.444904,-18.127626]]]}},{"type":"Feature","properties":{"k":"grass"},"geometry":{"type":"Polygon","coordinates":[[[178.433425,-18.157483],[178.433411,-18.157493],[178.433398,-18.157482],[178.433492,-18.15731],[178.433478,-18.157233],[178.433385,-18.157093],[178.433376,-18.157052],[178.433394,-18.157047],[178.433416,-18.157109],[178.433491,-18.157219],[178.433514,-18.157312],[178.433425,-18.157483]]]}},{"type":"Feature","properties":{"k":"grass"},"geometry":{"type":"Polygon","coordinates":[[[178.433344,-18.157517],[178.433277,-18.157522],[178.433253,-18.157544],[178.433252,-18.157555],[178.433254,-18.157573],[178.433265,-18.157589],[178.433267,-18.157578],[178.433349,-18.157579],[178.433355,-18.157592],[178.433373,-18.157576],[178.433374,-18.157563],[178.433376,-18.157544],[178.433372,-18.157534],[178.433363,-18.15752],[178.433344,-18.157517]]]}},{"type":"Feature","properties":{"k":"park"},"geometry":{"type":"Polygon","coordinates":[[[178.443655,-18.149907],[178.443789,-18.149899],[178.443832,-18.149954],[178.443757,-18.149983],[178.443726,-18.14996],[178.443655,-18.149907]]]}},{"type":"Feature","properties":{"k":"wood"},"geometry":{"type":"Polygon","coordinates":[[[178.445916,-18.151335],[178.446039,-18.15126],[178.446167,-18.151334],[178.446274,-18.151433],[178.446377,-18.151456],[178.446428,-18.151452],[178.446533,-18.151463],[178.446606,-18.151497],[178.446614,-18.151597],[178.446612,-18.151689],[178.446616,-18.151775],[178.446586,-18.15183],[178.446567,-18.151897],[178.44648,-18.151931],[178.446413,-18.151944],[178.446397,-18.151897],[178.446331,-18.151892],[178.446189,-18.151831],[178.446149,-18.151828],[178.446088,-18.151766],[178.44609,-18.151679],[178.446161,-18.151659],[178.446175,-18.151646],[178.446201,-18.151621],[178.446238,-18.151578],[178.446191,-18.151557],[178.446122,-18.151582],[178.446049,-18.151578],[178.445995,-18.151518],[178.445972,-18.151454],[178.445966,-18.151396],[178.445916,-18.151335]]]}},{"type":"Feature","properties":{"k":"wood"},"geometry":{"type":"Polygon","coordinates":[[[178.445887,-18.151678],[178.445838,-18.15159],[178.445831,-18.151548],[178.445824,-18.151494],[178.445868,-18.15145],[178.445948,-18.151438],[178.445999,-18.151541],[178.446063,-18.151603],[178.446189,-18.151593],[178.446175,-18.151646],[178.446074,-18.151678],[178.446061,-18.151739],[178.446159,-18.151865],[178.446275,-18.151899],[178.446194,-18.151927],[178.44613,-18.15194],[178.445976,-18.151827],[178.445887,-18.151678]]]}},{"type":"Feature","properties":{"k":"park"},"geometry":{"type":"Polygon","coordinates":[[[178.454986,-18.148825],[178.454994,-18.148788],[178.455384,-18.148212],[178.455402,-18.148202],[178.455426,-18.148212],[178.455414,-18.148287],[178.4554,-18.148347],[178.455412,-18.148412],[178.455429,-18.148519],[178.455422,-18.148594],[178.455408,-18.148681],[178.455388,-18.148766],[178.455394,-18.148825],[178.455381,-18.148877],[178.455353,-18.148906],[178.455321,-18.148942],[178.455289,-18.148954],[178.455258,-18.148954],[178.455178,-18.14896],[178.455119,-18.148966],[178.45503,-18.148964],[178.454991,-18.148846],[178.454986,-18.148825]]]}},{"type":"Feature","properties":{"k":"park"},"geometry":{"type":"Polygon","coordinates":[[[178.454176,-18.147803],[178.454611,-18.147227],[178.455116,-18.147569],[178.454704,-18.148162],[178.454176,-18.147803]]]}},{"type":"Feature","properties":{"k":"park"},"geometry":{"type":"Polygon","coordinates":[[[178.453983,-18.144153],[178.454191,-18.143842],[178.454623,-18.144103],[178.454409,-18.144385],[178.453983,-18.144153]]]}},{"type":"Feature","properties":{"k":"park"},"geometry":{"type":"Polygon","coordinates":[[[178.422567,-18.139238],[178.423401,-18.139698],[178.423261,-18.140011],[178.423224,-18.140167],[178.423158,-18.140301],[178.423054,-18.140392],[178.422971,-18.140405],[178.422745,-18.14038],[178.422576,-18.140357],[178.422433,-18.140266],[178.422335,-18.140187],[178.422256,-18.140001],[178.422262,-18.139849],[178.422319,-18.139722],[178.422352,-18.13965],[178.422567,-18.139238]]]}},{"type":"Feature","properties":{"k":"park"},"geometry":{"type":"Polygon","coordinates":[[[178.446595,-18.155427],[178.446531,-18.155544],[178.446484,-18.15564],[178.446484,-18.155862],[178.446496,-18.156161],[178.446285,-18.156349],[178.445845,-18.1568],[178.445696,-18.157037],[178.445586,-18.157039],[178.445505,-18.157162],[178.445272,-18.157343],[178.445066,-18.157518],[178.444897,-18.157749],[178.444732,-18.157997],[178.444649,-18.158119],[178.444546,-18.158225],[178.444398,-18.158307],[178.444266,-18.158352],[178.444194,-18.158456],[178.444166,-18.15858],[178.444097,-18.15857],[178.444005,-18.15854],[178.44393,-18.158516],[178.443806,-18.158478],[178.443689,-18.15856],[178.443674,-18.158666],[178.443638,-18.158735],[178.443611,-18.158911],[178.443554,-18.15915],[178.443434,-18.159373],[178.443245,-18.159562],[178.443067,-18.159696],[178.442751,-18.15987],[178.442261,-18.160173],[178.442119,-18.160099],[178.442747,-18.159431],[178.442807,-18.159291],[178.442845,-18.159252],[178.442935,-18.15921],[178.443136,-18.159002],[178.443376,-18.158748],[178.443578,-18.158539],[178.443927,-18.158152],[178.444224,-18.157839],[178.444659,-18.15738],[178.444718,-18.157231],[178.444743,-18.157204],[178.444889,-18.157038],[178.44493,-18.156986],[178.444997,-18.15694],[178.445075,-18.156911],[178.445141,-18.156876],[178.445168,-18.156843],[178.445189,-18.156781],[178.445219,-18.156666],[178.445429,-18.156475],[178.445475,-18.156463],[178.44551,-18.156434],[178.445758,-18.156156],[178.445777,-18.156115],[178.44588,-18.156053],[178.44596,-18.156022],[178.44635,-18.155606],[178.446407,-18.155468],[178.446485,-18.155347],[178.446595,-18.155427]]]}},{"type":"Feature","properties":{"k":"park"},"geometry":{"type":"Polygon","coordinates":[[[178.45481,-18.123656],[178.454467,-18.124606],[178.454931,-18.124869],[178.455435,-18.12388],[178.45481,-18.123656]]]}},{"type":"Feature","properties":{"k":"park"},"geometry":{"type":"Polygon","coordinates":[[[178.438606,-18.127955],[178.438452,-18.128011],[178.438282,-18.128196],[178.438173,-18.128637],[178.438194,-18.129383],[178.43882,-18.12942],[178.438933,-18.129575],[178.43899,-18.129842],[178.439829,-18.129707],[178.439857,-18.12969],[178.439875,-18.129663],[178.439931,-18.129297],[178.439916,-18.12917],[178.439951,-18.129045],[178.439854,-18.128479],[178.439825,-18.128404],[178.439718,-18.12827],[178.439666,-18.128259],[178.438783,-18.128408],[178.438606,-18.127955]]]}},{"type":"Feature","properties":{"k":"park"},"geometry":{"type":"Polygon","coordinates":[[[178.430035,-18.136242],[178.430435,-18.136],[178.431355,-18.136606],[178.431031,-18.137052],[178.430733,-18.136833],[178.430035,-18.136242]]]}},{"type":"Feature","properties":{"k":"park"},"geometry":{"type":"Polygon","coordinates":[[[178.450269,-18.130021],[178.450744,-18.13011],[178.450618,-18.130808],[178.450138,-18.130732],[178.450269,-18.130021]]]}},{"type":"Feature","properties":{"k":"wood"},"geometry":{"type":"Polygon","coordinates":[[[178.432453,-18.124744],[178.432337,-18.124379],[178.432212,-18.124215],[178.432175,-18.123995],[178.432164,-18.123869],[178.432192,-18.123646],[178.432285,-18.123544],[178.432673,-18.123484],[178.432777,-18.123599],[178.432758,-18.12376],[178.432729,-18.123913],[178.432777,-18.124056],[178.432809,-18.124211],[178.432734,-18.124402],[178.43267,-18.124573],[178.432724,-18.124695],[178.432791,-18.124853],[178.432785,-18.125004],[178.432648,-18.124991],[178.43252,-18.124907],[178.432453,-18.124744]]]}},{"type":"Feature","properties":{"k":"wood"},"geometry":{"type":"Polygon","coordinates":[[[178.440833,-18.151058],[178.440818,-18.151121],[178.440845,-18.151191],[178.440922,-18.151246],[178.441032,-18.151339],[178.441099,-18.151342],[178.441175,-18.151332],[178.441281,-18.151285],[178.441348,-18.151261],[178.441524,-18.151222],[178.441789,-18.151232],[178.441969,-18.151184],[178.442084,-18.151095],[178.442087,-18.150926],[178.441964,-18.150789],[178.441832,-18.15062],[178.441615,-18.150534],[178.441425,-18.150585],[178.441237,-18.150705],[178.441189,-18.150799],[178.441006,-18.150901],[178.440902,-18.150929],[178.440833,-18.151058]]]}},{"type":"Feature","properties":{"k":"wood"},"geometry":{"type":"Polygon","coordinates":[[[178.443749,-18.149035],[178.443777,-18.148963],[178.443829,-18.148843],[178.444063,-18.149003],[178.44425,-18.149238],[178.444346,-18.149326],[178.444448,-18.149422],[178.444497,-18.149467],[178.444669,-18.149651],[178.444586,-18.149887],[178.444356,-18.150108],[178.444218,-18.150078],[178.443907,-18.15016],[178.44378,-18.15005],[178.443892,-18.149999],[178.444108,-18.149893],[178.444201,-18.149801],[178.444068,-18.149539],[178.444095,-18.14936],[178.443998,-18.149212],[178.443821,-18.149217],[178.443772,-18.149161],[178.443758,-18.149075],[178.443749,-18.149035]]]}},{"type":"Feature","properties":{"k":"wood"},"geometry":{"type":"Polygon","coordinates":[[[178.443676,-18.149102],[178.443536,-18.14914],[178.443381,-18.149084],[178.443218,-18.149108],[178.443192,-18.149037],[178.443102,-18.14896],[178.443039,-18.148954],[178.442964,-18.148886],[178.442976,-18.14883],[178.442624,-18.148548],[178.442469,-18.148491],[178.442071,-18.148497],[178.441696,-18.148472],[178.441213,-18.148462],[178.440934,-18.148217],[178.440864,-18.147957],[178.440612,-18.147804],[178.440253,-18.147692],[178.440161,-18.147345],[178.440177,-18.146999],[178.440356,-18.147015],[178.440708,-18.146907],[178.440633,-18.146673],[178.440183,-18.146667],[178.440204,-18.146525],[178.440349,-18.146198],[178.440947,-18.146119],[178.441293,-18.146147],[178.441282,-18.146372],[178.441577,-18.146463],[178.441814,-18.146678],[178.441835,-18.146578],[178.441828,-18.146547],[178.441865,-18.146523],[178.441913,-18.146512],[178.442323,-18.146637],[178.442624,-18.146805],[178.442452,-18.146988],[178.44221,-18.147198],[178.442099,-18.147243],[178.44182,-18.147264],[178.441698,-18.147432],[178.44186,-18.147516],[178.442151,-18.147554],[178.44228,-18.147598],[178.44257,-18.147554],[178.442624,-18.147616],[178.442575,-18.147692],[178.442479,-18.147723],[178.442532,-18.147886],[178.442849,-18.148192],[178.443069,-18.148482],[178.443214,-18.148625],[178.443352,-18.148587],[178.443439,-18.14864],[178.443734,-18.148676],[178.443745,-18.14872],[178.443709,-18.148803],[178.443693,-18.14881],[178.44342,-18.148709],[178.443342,-18.148752],[178.443308,-18.148831],[178.443608,-18.148923],[178.443664,-18.149017],[178.443676,-18.149102]]]}},{"type":"Feature","properties":{"k":"park"},"geometry":{"type":"Polygon","coordinates":[[[178.446895,-18.149466],[178.446829,-18.149787],[178.447178,-18.149852],[178.447243,-18.149531],[178.446895,-18.149466]]]}},{"type":"Feature","properties":{"k":"park"},"geometry":{"type":"Polygon","coordinates":[[[178.428938,-18.150659],[178.429073,-18.150876],[178.428899,-18.151032],[178.428833,-18.151132],[178.429021,-18.151246],[178.428848,-18.151477],[178.428587,-18.151306],[178.428577,-18.150888],[178.428938,-18.150659]]]}},{"type":"Feature","properties":{"k":"park"},"geometry":{"type":"Polygon","coordinates":[[[178.437262,-18.146894],[178.437836,-18.146994],[178.437681,-18.147798],[178.437106,-18.147698],[178.437262,-18.146894]]]}},{"type":"Feature","properties":{"k":"park"},"geometry":{"type":"Polygon","coordinates":[[[178.450875,-18.137575],[178.45049,-18.138737],[178.451074,-18.138885],[178.451418,-18.137719],[178.450875,-18.137575]]]}},{"type":"Feature","properties":{"k":"wood"},"geometry":{"type":"Polygon","coordinates":[[[178.443299,-18.149156],[178.443249,-18.149149],[178.443192,-18.149196],[178.443101,-18.149212],[178.443063,-18.14919],[178.443039,-18.14918],[178.443014,-18.149169],[178.442985,-18.149154],[178.442982,-18.149137],[178.442874,-18.149159],[178.442849,-18.149153],[178.442781,-18.149207],[178.442751,-18.149249],[178.442711,-18.149292],[178.442692,-18.149371],[178.442667,-18.149415],[178.442683,-18.149484],[178.442735,-18.149484],[178.442755,-18.1495],[178.442729,-18.149561],[178.442764,-18.149651],[178.442912,-18.14945],[178.442974,-18.149419],[178.442965,-18.149541],[178.442982,-18.149595],[178.442979,-18.149627],[178.443059,-18.149608],[178.443126,-18.149583],[178.443222,-18.149523],[178.443264,-18.149496],[178.443347,-18.149406],[178.443348,-18.149163],[178.443299,-18.149156]]]}},{"type":"Feature","properties":{"k":"grass"},"geometry":{"type":"Polygon","coordinates":[[[178.434832,-18.145857],[178.434654,-18.145526],[178.43571,-18.145083],[178.435852,-18.145388],[178.434832,-18.145857]]]}},{"type":"Feature","properties":{"k":"grass"},"geometry":{"type":"Polygon","coordinates":[[[178.422,-18.146333],[178.422004,-18.146588],[178.422129,-18.146594],[178.422126,-18.146766],[178.422486,-18.146772],[178.422485,-18.147069],[178.42199,-18.147069],[178.421988,-18.147184],[178.422098,-18.147183],[178.422093,-18.147238],[178.422145,-18.147252],[178.422212,-18.147269],[178.422278,-18.147271],[178.42233,-18.147266],[178.422336,-18.147205],[178.422485,-18.147214],[178.422482,-18.147327],[178.422521,-18.147328],[178.422521,-18.147337],[178.422643,-18.147339],[178.422642,-18.147368],[178.422619,-18.147368],[178.422619,-18.14739],[178.422604,-18.14739],[178.422605,-18.147373],[178.422061,-18.147364],[178.422056,-18.147595],[178.422569,-18.147603],[178.422567,-18.147717],[178.422885,-18.147722],[178.422886,-18.147823],[178.422556,-18.147757],[178.422298,-18.14772],[178.42191,-18.14761],[178.42192,-18.146336],[178.422,-18.146333]]]}}]}