{"type":"FeatureCollection","features":[
{"type":"Feature","properties":{"city":"parramatta","type":"school","name":"Holroyd School","kind":"School","street":"Lowana Avenue"},"geometry":{"type":"Point","coordinates":[150.98109,-33.8289]}},
{"type":"Feature","properties":{"city":"parramatta","type":"school","name":"Fowler Road School","kind":"School","street":"Leigh Street"},"geometry":{"type":"Point","coordinates":[150.97552,-33.84147]}},
{"type":"Feature","properties":{"city":"parramatta","type":"school","name":"Sherwood Grange Public School","kind":"Primary school","street":"Bruce Street"},"geometry":{"type":"Point","coordinates":[150.96009,-33.83679]}},
{"type":"Feature","properties":{"city":"parramatta","type":"school","name":"Hilltop Public School","kind":"Primary school","street":"Hilltop Road"},"geometry":{"type":"Point","coordinates":[150.97289,-33.82633]}},
{"type":"Feature","properties":{"city":"parramatta","type":"school","name":"Cerdon College","kind":"Secondary school","street":"Sherwood Road"},"geometry":{"type":"Point","coordinates":[150.96862,-33.83855]}},
{"type":"Feature","properties":{"city":"parramatta","type":"school","name":"Merrylands Public School","kind":"Primary school","street":"Holdsworth Street"},"geometry":{"type":"Point","coordinates":[150.97606,-33.84044]}},
{"type":"Feature","properties":{"city":"parramatta","type":"school","name":"St Margaret Mary's Primary School","kind":"Primary school","street":"Chetwynd Road"},"geometry":{"type":"Point","coordinates":[150.98174,-33.83577]}},
{"type":"Feature","properties":{"city":"parramatta","type":"school","name":"Ringrose Public School","kind":"Primary school","street":"Damien Avenue"},"geometry":{"type":"Point","coordinates":[150.9594,-33.82022]}},
{"type":"Feature","properties":{"city":"parramatta","type":"school","name":"Merrylands High School","kind":"Secondary school","street":"Bristol Street"},"geometry":{"type":"Point","coordinates":[150.9698,-33.84084]}},
{"type":"Feature","properties":{"city":"parramatta","type":"school","name":"Merrylands East Public School","kind":"Primary school","street":"York Street"},"geometry":{"type":"Point","coordinates":[150.98926,-33.84199]}},
{"type":"Feature","properties":{"city":"parramatta","type":"school","name":"Parramatta High School","kind":"Secondary school","street":"Pitt Street"},"geometry":{"type":"Point","coordinates":[150.99607,-33.81792]}},
{"type":"Feature","properties":{"city":"parramatta","type":"school","name":"Granville South Public School","kind":"Primary school","street":"Oxford Street"},"geometry":{"type":"Point","coordinates":[150.99558,-33.84841]}},
{"type":"Feature","properties":{"city":"parramatta","type":"school","name":"Guildford West Public School","kind":"Primary school","street":"Carmen Street"},"geometry":{"type":"Point","coordinates":[150.96657,-33.84728]}},
{"type":"Feature","properties":{"city":"parramatta","type":"school","name":"Parramatta West Public School","kind":"Primary school","street":"Railway Street"},"geometry":{"type":"Point","coordinates":[150.99076,-33.82401]}},
{"type":"Feature","properties":{"city":"parramatta","type":"school","name":"Rosehill Primary School","kind":"Primary school","street":"Virginia Street"},"geometry":{"type":"Point","coordinates":[151.01788,-33.82419]}},
{"type":"Feature","properties":{"city":"parramatta","type":"school","name":"Holy Trinity Primary School","kind":"Primary school","street":"Grimwood Street"},"geometry":{"type":"Point","coordinates":[151.00121,-33.83285]}},
{"type":"Feature","properties":{"city":"parramatta","type":"school","name":"Muslim Girls Grammar School","kind":"Secondary school","street":"Lumley Street"},"geometry":{"type":"Point","coordinates":[151.01022,-33.83489]}},
{"type":"Feature","properties":{"city":"parramatta","type":"school","name":"Delany College","kind":"Secondary school","street":"Grimwood Street"},"geometry":{"type":"Point","coordinates":[151.00094,-33.83349]}},
{"type":"Feature","properties":{"city":"parramatta","type":"school","name":"St John's Catholic Primary School","kind":"Primary school","street":"Queen Street"},"geometry":{"type":"Point","coordinates":[151.03032,-33.84793]}},
{"type":"Feature","properties":{"city":"parramatta","type":"school","name":"Maronite College of the Holy Family Parramatta","kind":"Secondary school","street":"Weston Street"},"geometry":{"type":"Point","coordinates":[151.01453,-33.82146]}},
{"type":"Feature","properties":{"city":"parramatta","type":"school","name":"Granville Boys High School","kind":"Secondary school","street":"Mary Street"},"geometry":{"type":"Point","coordinates":[151.00865,-33.83462]}},
{"type":"Feature","properties":{"city":"parramatta","type":"school","name":"Granville Public School","kind":"Primary school","street":"Lena Street"},"geometry":{"type":"Point","coordinates":[151.00465,-33.83427]}},
{"type":"Feature","properties":{"city":"parramatta","type":"school","name":"Auburn Girls High School","kind":"Secondary school","street":"Karrabah Road"},"geometry":{"type":"Point","coordinates":[151.03368,-33.84298]}},
{"type":"Feature","properties":{"city":"parramatta","type":"school","name":"Trinity Catholic College","kind":"Secondary school","street":"Park Road"},"geometry":{"type":"Point","coordinates":[151.03017,-33.84998]}},
{"type":"Feature","properties":{"city":"parramatta","type":"school","name":"Auburn North Public School","kind":"Primary school","street":"Adderley Street West"},"geometry":{"type":"Point","coordinates":[151.03858,-33.84165]}},
{"type":"Feature","properties":{"city":"parramatta","type":"school","name":"Holy Family Primary School","kind":"Primary school","street":"Hudson Street"},"geometry":{"type":"Point","coordinates":[151.01153,-33.84801]}},
{"type":"Feature","properties":{"city":"parramatta","type":"school","name":"Sydney Adventist School Auburn","kind":"School","street":"Macquarie Road"},"geometry":{"type":"Point","coordinates":[151.03314,-33.84821]}},
{"type":"Feature","properties":{"city":"parramatta","type":"school","name":"Granville East Public School","kind":"Primary school","street":"The Trongate"},"geometry":{"type":"Point","coordinates":[151.00995,-33.84828]}},
{"type":"Feature","properties":{"city":"parramatta","type":"school","name":"St Oliver's Primary School","kind":"Primary school","street":"Wigram Street"},"geometry":{"type":"Point","coordinates":[151.00899,-33.82448]}},
{"type":"Feature","properties":{"city":"parramatta","type":"school","name":"Redbank School","kind":"School","street":"Dragonfly Drive"},"geometry":{"type":"Point","coordinates":[150.98714,-33.80101]}},
{"type":"Feature","properties":{"city":"parramatta","type":"school","name":"Westmead Public School","kind":"Primary school","street":"Moree Avenue"},"geometry":{"type":"Point","coordinates":[150.98528,-33.81025]}},
{"type":"Feature","properties":{"city":"parramatta","type":"school","name":"Parramatta Marist High School","kind":"Secondary school","street":"Maple Tree Road"},"geometry":{"type":"Point","coordinates":[150.98481,-33.80581]}},
{"type":"Feature","properties":{"city":"parramatta","type":"school","name":"Sacred Heart Primary Westmead","kind":"Primary school","street":"Darcy Road"},"geometry":{"type":"Point","coordinates":[150.98356,-33.80467]}},
{"type":"Feature","properties":{"city":"parramatta","type":"school","name":"Sacred Heart Primary School","kind":"Primary school","street":"Ralph Street"},"geometry":{"type":"Point","coordinates":[150.98671,-33.81321]}},
{"type":"Feature","properties":{"city":"parramatta","type":"school","name":"Toongabbie Public School","kind":"Primary school","street":"Fitzwilliam Road"},"geometry":{"type":"Point","coordinates":[150.96666,-33.78719]}},
{"type":"Feature","properties":{"city":"parramatta","type":"school","name":"Toongabbie East Public School","kind":"Primary school","street":"Bann Way"},"geometry":{"type":"Point","coordinates":[150.98012,-33.7974]}},
{"type":"Feature","properties":{"city":"parramatta","type":"school","name":"Northmead Primary School","kind":"Primary school","street":"Moxhams Road"},"geometry":{"type":"Point","coordinates":[150.99072,-33.78652]}},
{"type":"Feature","properties":{"city":"parramatta","type":"school","name":"Northmead Creative and Performing Arts High School","kind":"Secondary school","street":"Speers Road"},"geometry":{"type":"Point","coordinates":[150.99988,-33.78782]}},
{"type":"Feature","properties":{"city":"parramatta","type":"school","name":"Our Lady of Mount Carmel Primary School","kind":"Primary school","street":"Bennett Street"},"geometry":{"type":"Point","coordinates":[150.96924,-33.81228]}},
{"type":"Feature","properties":{"city":"parramatta","type":"school","name":"Wentworthville Public School","kind":"Primary school","street":"Fullagar Road"},"geometry":{"type":"Point","coordinates":[150.9686,-33.81401]}},
{"type":"Feature","properties":{"city":"parramatta","type":"school","name":"The Childrens Hospital School","kind":"School","street":"Hawkesbury Road"},"geometry":{"type":"Point","coordinates":[150.99183,-33.80224]}},
{"type":"Feature","properties":{"city":"parramatta","type":"school","name":"Pendle Hill High School","kind":"Secondary school","street":"Illoca Place"},"geometry":{"type":"Point","coordinates":[150.9619,-33.79374]}},
{"type":"Feature","properties":{"city":"parramatta","type":"school","name":"Darcy Road Public School","kind":"Primary school","street":"Darcy Road"},"geometry":{"type":"Point","coordinates":[150.96598,-33.80193]}},
{"type":"Feature","properties":{"city":"parramatta","type":"school","name":"Palm Avenue School","kind":"School","street":"Redbank Track"},"geometry":{"type":"Point","coordinates":[150.98671,-33.80027]}},
{"type":"Feature","properties":{"city":"parramatta","type":"school","name":"Toongabbie West Public School","kind":"Primary school","street":"Ballandella Road"},"geometry":{"type":"Point","coordinates":[150.95718,-33.79278]}},
{"type":"Feature","properties":{"city":"parramatta","type":"school","name":"The King's School","kind":"School","street":"Pennant Hills Road"},"geometry":{"type":"Point","coordinates":[151.02238,-33.78814]}},
{"type":"Feature","properties":{"city":"parramatta","type":"school","name":"Burnside Public School","kind":"Primary school","street":"Masons Drive"},"geometry":{"type":"Point","coordinates":[151.0183,-33.79245]}},
{"type":"Feature","properties":{"city":"parramatta","type":"school","name":"Oatlands Public School","kind":"Primary school","street":"James Ruse Drive"},"geometry":{"type":"Point","coordinates":[151.02373,-33.80075]}},
{"type":"Feature","properties":{"city":"parramatta","type":"school","name":"St Monica's Primary School","kind":"Primary school","street":"North Rocks Road"},"geometry":{"type":"Point","coordinates":[151.00085,-33.79335]}},
{"type":"Feature","properties":{"city":"parramatta","type":"school","name":"Parramatta East Public School","kind":"Primary school","street":"Gaggin Street"},"geometry":{"type":"Point","coordinates":[151.0175,-33.80618]}},
{"type":"Feature","properties":{"city":"parramatta","type":"school","name":"Our Lady of Mercy College","kind":"Secondary school","street":"Victoria Road"},"geometry":{"type":"Point","coordinates":[151.00294,-33.80774]}},
{"type":"Feature","properties":{"city":"parramatta","type":"school","name":"Redeemer Baptist School","kind":"School","street":"Pennant Hills Road"},"geometry":{"type":"Point","coordinates":[151.01628,-33.79365]}},
{"type":"Feature","properties":{"city":"parramatta","type":"school","name":"Parramatta North Public School","kind":"Primary school","street":"Albert Street"},"geometry":{"type":"Point","coordinates":[151.00471,-33.80402]}},
{"type":"Feature","properties":{"city":"parramatta","type":"school","name":"Parramatta Public School","kind":"Primary school","street":"Macquarie Street"},"geometry":{"type":"Point","coordinates":[151.00734,-33.81641]}},
{"type":"Feature","properties":{"city":"parramatta","type":"school","name":"St Mary's Primary School","kind":"Primary school","street":"Pine Street"},"geometry":{"type":"Point","coordinates":[151.04048,-33.81074]}},
{"type":"Feature","properties":{"city":"parramatta","type":"school","name":"Arthur Phillip High School","kind":"Secondary school","street":"Macquarie Street"},"geometry":{"type":"Point","coordinates":[151.00772,-33.81571]}},
{"type":"Feature","properties":{"city":"parramatta","type":"school","name":"Tara Anglican School for Girls","kind":"School","street":"Masons Drive"},"geometry":{"type":"Point","coordinates":[151.01587,-33.7888]}},
{"type":"Feature","properties":{"city":"parramatta","type":"school","name":"St Patrick's Primary School","kind":"Primary school","street":"Ross Street"},"geometry":{"type":"Point","coordinates":[151.00362,-33.80712]}},
{"type":"Feature","properties":{"city":"parramatta","type":"school","name":"Dundas Public School","kind":"Primary school","street":"Kissing Point Road"},"geometry":{"type":"Point","coordinates":[151.03635,-33.80454]}},
{"type":"Feature","properties":{"city":"parramatta","type":"school","name":"Telopea Public School","kind":"Primary school","street":"Chestnut Avenue"},"geometry":{"type":"Point","coordinates":[151.04369,-33.79704]}},
{"type":"Feature","properties":{"city":"parramatta","type":"school","name":"Bayanami Public School","kind":"Primary school","street":"Marist Place"},"geometry":{"type":"Point","coordinates":[151.00209,-33.80885]}},
{"type":"Feature","properties":{"city":"parramatta","type":"school","name":"Macarthur Girls High School","kind":"Secondary school","street":"Macarthur Street"},"geometry":{"type":"Point","coordinates":[151.01246,-33.81305]}},
{"type":"Feature","properties":{"city":"parramatta","type":"school","name":"Rydalmere Public School","kind":"Primary school","street":"Victoria Road"},"geometry":{"type":"Point","coordinates":[151.04475,-33.81419]}},
{"type":"Feature","properties":{"city":"parramatta","type":"aged","name":"Northcourt","kind":"Residential aged care","street":"Gilbert Street"},"geometry":{"type":"Point","coordinates":[151.00938,-33.79779]}},
{"type":"Feature","properties":{"city":"parramatta","type":"aged","name":"Constitution Hill Aged Care","kind":"Residential aged care","street":"Centenary Avenue"},"geometry":{"type":"Point","coordinates":[150.98087,-33.78837]}},
{"type":"Feature","properties":{"city":"parramatta","type":"aged","name":"Sydney Veterans Lodge","kind":"Residential aged care","street":"Darcy Road"},"geometry":{"type":"Point","coordinates":[150.97145,-33.80268]}},
{"type":"Feature","properties":{"city":"parramatta","type":"aged","name":"Melrose Aged Care","kind":"Residential aged care","street":"Bungaree Road"},"geometry":{"type":"Point","coordinates":[150.95963,-33.79988]}},
{"type":"Feature","properties":{"city":"parramatta","type":"aged","name":"St Vincent's Aged Care Auburn","kind":"Residential aged care","street":"Alice Street"},"geometry":{"type":"Point","coordinates":[151.02878,-33.84948]}},
{"type":"Feature","properties":{"city":"melbourne","type":"school","name":"Montague School","kind":"School","street":"Montague Street"},"geometry":{"type":"Point","coordinates":[144.94966,-37.83075]}},
{"type":"Feature","properties":{"city":"melbourne","type":"school","name":"Docklands Primary School","kind":"Primary school","street":"Little Docklands Drive"},"geometry":{"type":"Point","coordinates":[144.94139,-37.81262]}},
{"type":"Feature","properties":{"city":"melbourne","type":"school","name":"Port Melbourne Secondary College","kind":"Secondary school","street":"Graham Street"},"geometry":{"type":"Point","coordinates":[144.93183,-37.83208]}},
{"type":"Feature","properties":{"city":"melbourne","type":"school","name":"South Melbourne Primary School","kind":"Primary school","street":"Ferrars Street"},"geometry":{"type":"Point","coordinates":[144.95383,-37.82948]}},
{"type":"Feature","properties":{"city":"melbourne","type":"school","name":"Ozford College","kind":"Secondary school","street":"King Street"},"geometry":{"type":"Point","coordinates":[144.9544,-37.8128]}},
{"type":"Feature","properties":{"city":"melbourne","type":"school","name":"Victorian College of the Arts Secondary School","kind":"Secondary school","street":"Miles Street"},"geometry":{"type":"Point","coordinates":[144.96496,-37.82845]}},
{"type":"Feature","properties":{"city":"melbourne","type":"school","name":"Haileybury College City Campus","kind":"Secondary school","street":"King Street"},"geometry":{"type":"Point","coordinates":[144.95291,-37.81109]}},
{"type":"Feature","properties":{"city":"melbourne","type":"school","name":"North Melbourne Primary School","kind":"Primary school","street":"Errol Street"},"geometry":{"type":"Point","coordinates":[144.95157,-37.79832]}},
{"type":"Feature","properties":{"city":"melbourne","type":"school","name":"Simonds Catholic College St Mary's 7–10 Campus","kind":"Secondary school","street":"Victoria Street"},"geometry":{"type":"Point","coordinates":[144.95285,-37.80603]}},
{"type":"Feature","properties":{"city":"melbourne","type":"school","name":"St Aloysius College","kind":"Secondary school","street":"Curran Street"},"geometry":{"type":"Point","coordinates":[144.94278,-37.79266]}},
{"type":"Feature","properties":{"city":"melbourne","type":"school","name":"North Melbourne Primary School - Molesworth Campus","kind":"Primary school","street":"Kirner Street"},"geometry":{"type":"Point","coordinates":[144.94739,-37.79755]}},
{"type":"Feature","properties":{"city":"melbourne","type":"school","name":"St Michael's Primary School","kind":"Primary school","street":"Brougham Street"},"geometry":{"type":"Point","coordinates":[144.94633,-37.79336]}},
{"type":"Feature","properties":{"city":"melbourne","type":"school","name":"Simonds Catholic College St Brigid's VCE Campus","kind":"Secondary school","street":"York Street"},"geometry":{"type":"Point","coordinates":[144.97667,-37.79214]}},
{"type":"Feature","properties":{"city":"melbourne","type":"school","name":"Academy of Mary Immaculate","kind":"School","street":"Nicholson Street"},"geometry":{"type":"Point","coordinates":[144.9745,-37.80363]}},
{"type":"Feature","properties":{"city":"melbourne","type":"school","name":"Carlton Gardens Primary School","kind":"Primary school","street":"Rathdowne Street"},"geometry":{"type":"Point","coordinates":[144.96929,-37.80194]}},
{"type":"Feature","properties":{"city":"melbourne","type":"school","name":"Holmes Grammar School","kind":"Secondary school","street":"Spring Street"},"geometry":{"type":"Point","coordinates":[144.97219,-37.81032]}},
{"type":"Feature","properties":{"city":"melbourne","type":"school","name":"Carlton Primary School","kind":"Primary school","street":"Rathdowne Street"},"geometry":{"type":"Point","coordinates":[144.97008,-37.79559]}},
{"type":"Feature","properties":{"city":"melbourne","type":"school","name":"River Nile School","kind":"School","street":"Capel Street"},"geometry":{"type":"Point","coordinates":[144.95494,-37.80507]}},
{"type":"Feature","properties":{"city":"melbourne","type":"aged","name":"Rathdowne Place Aged Care","kind":"Residential aged care","street":"Rathdowne Street"},"geometry":{"type":"Point","coordinates":[144.97091,-37.79366]}},
{"type":"Feature","properties":{"city":"london","type":"school","name":"Friars Primary Foundation School","kind":"Primary school","street":"Webber Street"},"geometry":{"type":"Point","coordinates":[-0.10315,51.50137]}},
{"type":"Feature","properties":{"city":"london","type":"school","name":"St Clement Danes Church of England Primary School","kind":"Primary school","street":"Drury Lane"},"geometry":{"type":"Point","coordinates":[-0.11916,51.51362]}},
{"type":"Feature","properties":{"city":"london","type":"school","name":"London Nautical, City of London Academy","kind":"School","street":"Stamford Street"},"geometry":{"type":"Point","coordinates":[-0.1082,51.50649]}},
{"type":"Feature","properties":{"city":"london","type":"school","name":"Oasis Academy South Bank Primary","kind":"Primary school","street":"Johanna Street"},"geometry":{"type":"Point","coordinates":[-0.1115,51.50086]}},
{"type":"Feature","properties":{"city":"london","type":"school","name":"DLD College London","kind":"Secondary school","street":"Westminster Bridge Road"},"geometry":{"type":"Point","coordinates":[-0.11629,51.50015]}},
{"type":"Feature","properties":{"city":"london","type":"school","name":"Tower Bridge Primary School","kind":"Primary school","street":"Fair Street"},"geometry":{"type":"Point","coordinates":[-0.07742,51.50177]}},
{"type":"Feature","properties":{"city":"london","type":"school","name":"Beormund Primary School","kind":"Primary school","street":"Crosby Row"},"geometry":{"type":"Point","coordinates":[-0.08838,51.50072]}},
{"type":"Feature","properties":{"city":"london","type":"school","name":"David Game College","kind":"Secondary school","street":"Jewry Street"},"geometry":{"type":"Point","coordinates":[-0.07634,51.51287]}},
{"type":"Feature","properties":{"city":"london","type":"school","name":"Haberdashers’ Aske’s Borough Academy","kind":"School","street":"Sturge Street"},"geometry":{"type":"Point","coordinates":[-0.09943,51.50174]}},
{"type":"Feature","properties":{"city":"london","type":"school","name":"Snowsfields Primary School","kind":"Primary school","street":"Kirby Grove"},"geometry":{"type":"Point","coordinates":[-0.0839,51.50146]}},
{"type":"Feature","properties":{"city":"london","type":"school","name":"Saint Joseph's Catholic Primary School","kind":"Primary school","street":"Little Dorrit Court"},"geometry":{"type":"Point","coordinates":[-0.09324,51.50267]}},
{"type":"Feature","properties":{"city":"london","type":"school","name":"The Cathedral School of St Saviour and St Mary Overie","kind":"School","street":"Redcross Way"},"geometry":{"type":"Point","coordinates":[-0.09371,51.50313]}},
{"type":"Feature","properties":{"city":"london","type":"school","name":"City of London School","kind":"School","street":"Queen Victoria Street"},"geometry":{"type":"Point","coordinates":[-0.09909,51.51133]}},
{"type":"Feature","properties":{"city":"london","type":"school","name":"St Paul's Cathedral School","kind":"School","street":"New Change"},"geometry":{"type":"Point","coordinates":[-0.09679,51.51372]}},
{"type":"Feature","properties":{"city":"london","type":"school","name":"Charles Dickens Primary School","kind":"Primary school","street":"Toulmin Street"},"geometry":{"type":"Point","coordinates":[-0.09615,51.50118]}},
{"type":"Feature","properties":{"city":"london","type":"school","name":"The Aldgate School","kind":"School","street":"St James's Passage"},"geometry":{"type":"Point","coordinates":[-0.07751,51.51371]}},
{"type":"Feature","properties":{"city":"london","type":"school","name":"St George the Martyr Church of England Primary School","kind":"Primary school","street":"John's Mews"},"geometry":{"type":"Point","coordinates":[-0.11687,51.52247]}},
{"type":"Feature","properties":{"city":"london","type":"school","name":"Christopher Hatton Primary School","kind":"Primary school","street":"Laystall Street"},"geometry":{"type":"Point","coordinates":[-0.11227,51.52272]}},
{"type":"Feature","properties":{"city":"london","type":"school","name":"Hugh Myddelton Primary School","kind":"Primary school","street":"Myddelton Street"},"geometry":{"type":"Point","coordinates":[-0.10606,51.52776]}},
{"type":"Feature","properties":{"city":"london","type":"school","name":"Clerkenwell Parochial CofE Primary School","kind":"Primary school","street":"Amwell Street"},"geometry":{"type":"Point","coordinates":[-0.11027,51.52847]}},
{"type":"Feature","properties":{"city":"london","type":"school","name":"St. Giles Colleges London Central","kind":"Secondary school","street":"Southampton Row"},"geometry":{"type":"Point","coordinates":[-0.12375,51.5214]}},
{"type":"Feature","properties":{"city":"london","type":"school","name":"Dania School","kind":"School","street":"Northampton Road"},"geometry":{"type":"Point","coordinates":[-0.10673,51.5252]}},
{"type":"Feature","properties":{"city":"london","type":"school","name":"St Josephs Catholic Primary School","kind":"Primary school","street":"Macklin Street"},"geometry":{"type":"Point","coordinates":[-0.12178,51.51623]}},
{"type":"Feature","properties":{"city":"london","type":"school","name":"St Peter and St Paul Catholic Primary School","kind":"Primary school","street":"Compton Street"},"geometry":{"type":"Point","coordinates":[-0.10093,51.52495]}},
{"type":"Feature","properties":{"city":"london","type":"school","name":"Argyle Primary School","kind":"Primary school","street":"Tonbridge Street"},"geometry":{"type":"Point","coordinates":[-0.12402,51.52875]}},
{"type":"Feature","properties":{"city":"london","type":"school","name":"Jeannine Manuel School","kind":"School","street":"Bedford Square"},"geometry":{"type":"Point","coordinates":[-0.12973,51.51833]}},
{"type":"Feature","properties":{"city":"london","type":"school","name":"The Children's Hospital School at Great Ormond Street Hospital (GOSH)","kind":"School","street":"Great Ormond Street"},"geometry":{"type":"Point","coordinates":[-0.12054,51.522]}},
{"type":"Feature","properties":{"city":"london","type":"school","name":"Odyssey House School - Bloomsbury","kind":"School","street":"Russell Square"},"geometry":{"type":"Point","coordinates":[-0.12591,51.52053]}},
{"type":"Feature","properties":{"city":"london","type":"school","name":"City Junior School","kind":"Primary school","street":"Gray's Inn Place"},"geometry":{"type":"Point","coordinates":[-0.11429,51.51898]}},
{"type":"Feature","properties":{"city":"london","type":"school","name":"Dallington School","kind":"School","street":"Dallington Street"},"geometry":{"type":"Point","coordinates":[-0.10043,51.52461]}},
{"type":"Feature","properties":{"city":"london","type":"school","name":"St Alban's Church of England Primary School","kind":"Primary school","street":"Baldwins Gardens"},"geometry":{"type":"Point","coordinates":[-0.1111,51.52017]}},
{"type":"Feature","properties":{"city":"london","type":"school","name":"Central Foundation Boys' School","kind":"School","street":"Cowper Street"},"geometry":{"type":"Point","coordinates":[-0.08582,51.52499]}},
{"type":"Feature","properties":{"city":"london","type":"school","name":"Mulberry Academy Shoreditch","kind":"School","street":"Gosset Street"},"geometry":{"type":"Point","coordinates":[-0.06996,51.52707]}},
{"type":"Feature","properties":{"city":"london","type":"school","name":"New Regent's College","kind":"Secondary school","street":"Nile Street"},"geometry":{"type":"Point","coordinates":[-0.09042,51.52964]}},
{"type":"Feature","properties":{"city":"london","type":"school","name":"Christ Church CofE School","kind":"School","street":"Brick Lane"},"geometry":{"type":"Point","coordinates":[-0.07235,51.51883]}},
{"type":"Feature","properties":{"city":"london","type":"school","name":"Mulberry Canon Barnett Primary Academy","kind":"Primary school","street":"Gunthorpe Street"},"geometry":{"type":"Point","coordinates":[-0.07187,51.51623]}},
{"type":"Feature","properties":{"city":"london","type":"school","name":"Brick Lane School","kind":"School","street":"Bacon Street"},"geometry":{"type":"Point","coordinates":[-0.07082,51.52436]}},
{"type":"Feature","properties":{"city":"london","type":"school","name":"City of London School for Girls","kind":"School","street":"Thomas More Highwalk"},"geometry":{"type":"Point","coordinates":[-0.09435,51.51917]}},
{"type":"Feature","properties":{"city":"london","type":"school","name":"Charterhouse Square School","kind":"School","street":"Charterhouse Square"},"geometry":{"type":"Point","coordinates":[-0.09882,51.52035]}},
{"type":"Feature","properties":{"city":"london","type":"school","name":"Prior Weston Primary School and Children's Centre","kind":"Primary school","street":"Whitecross Street"},"geometry":{"type":"Point","coordinates":[-0.09344,51.52171]}},
{"type":"Feature","properties":{"city":"london","type":"school","name":"St Luke's CofE Primary School","kind":"Primary school","street":"Radnor Street"},"geometry":{"type":"Point","coordinates":[-0.09186,51.52644]}},
{"type":"Feature","properties":{"city":"london","type":"school","name":"City of London Primary Academy, Islington","kind":"Primary school","street":"Baltic Street West"},"geometry":{"type":"Point","coordinates":[-0.0959,51.52317]}},
{"type":"Feature","properties":{"city":"london","type":"school","name":"Moreland Primary School","kind":"Primary school","street":"Moreland Street"},"geometry":{"type":"Point","coordinates":[-0.0993,51.52861]}},
{"type":"Feature","properties":{"city":"london","type":"school","name":"Virginia Primary School","kind":"Primary school","street":"Virginia Road"},"geometry":{"type":"Point","coordinates":[-0.07544,51.52663]}},
{"type":"Feature","properties":{"city":"london","type":"school","name":"Columbia Primary School","kind":"Primary school","street":"Columbia Road"},"geometry":{"type":"Point","coordinates":[-0.07008,51.52927]}},
{"type":"Feature","properties":{"city":"london","type":"school","name":"St Monica's Catholic Primary School","kind":"Primary school","street":"Hoxton Street"},"geometry":{"type":"Point","coordinates":[-0.08066,51.52858]}},
{"type":"Feature","properties":{"city":"sydney","type":"school","name":"Key College","kind":"Secondary school","street":"Caroline Street"},"geometry":{"type":"Point","coordinates":[151.19871,-33.89109]}},
{"type":"Feature","properties":{"city":"sydney","type":"school","name":"St Andrews Cathedral School","kind":"School","street":"Kent Street"},"geometry":{"type":"Point","coordinates":[151.20559,-33.8738]}},
{"type":"Feature","properties":{"city":"sydney","type":"school","name":"Inner Sydney High School","kind":"Secondary school","street":"Cleveland Street"},"geometry":{"type":"Point","coordinates":[151.2058,-33.88908]}},
{"type":"Feature","properties":{"city":"sydney","type":"school","name":"Sydney Grammar School","kind":"Secondary school","street":"College Lane"},"geometry":{"type":"Point","coordinates":[151.21337,-33.87499]}},
{"type":"Feature","properties":{"city":"sydney","type":"school","name":"Sydney Distance Education Primary School","kind":"Primary school","street":"Collins Street"},"geometry":{"type":"Point","coordinates":[151.21278,-33.88617]}},
{"type":"Feature","properties":{"city":"sydney","type":"school","name":"Sydney Boys High School","kind":"Secondary school","street":"Cleveland Street"},"geometry":{"type":"Point","coordinates":[151.21957,-33.89225]}},
{"type":"Feature","properties":{"city":"sydney","type":"school","name":"Australasia Academy","kind":"School","street":"Castlereagh Street"},"geometry":{"type":"Point","coordinates":[151.20863,-33.87595]}},
{"type":"Feature","properties":{"city":"sydney","type":"school","name":"Crown Street Public School","kind":"Primary school","street":"Crown Street"},"geometry":{"type":"Point","coordinates":[151.21518,-33.88236]}},
{"type":"Feature","properties":{"city":"sydney","type":"school","name":"Bourke Street Public School","kind":"Primary school","street":"Bourke Street"},"geometry":{"type":"Point","coordinates":[151.21574,-33.89055]}},
{"type":"Feature","properties":{"city":"sydney","type":"school","name":"Fort Street Public School","kind":"Primary school","street":"Cahill Expressway"},"geometry":{"type":"Point","coordinates":[151.20482,-33.86054]}},
{"type":"Feature","properties":{"city":"sydney","type":"school","name":"St Mary's Cathedral College, Sydney","kind":"Secondary school","street":"Saint Mary's Road"},"geometry":{"type":"Point","coordinates":[151.21439,-33.87146]}},
{"type":"Feature","properties":{"city":"sydney","type":"school","name":"Conservatorium High School","kind":"Secondary school","street":"Conservatorium Road"},"geometry":{"type":"Point","coordinates":[151.21448,-33.86344]}},
{"type":"Feature","properties":{"city":"sydney","type":"aged","name":"BaptistCare HopeStreet","kind":"Residential aged care","street":"Cathedral Street"},"geometry":{"type":"Point","coordinates":[151.21951,-33.87271]}},
{"type":"Feature","properties":{"city":"sydney","type":"aged","name":"Gertrude Abbot Aged Care","kind":"Residential aged care","street":"Albion Street"},"geometry":{"type":"Point","coordinates":[151.21541,-33.8836]}},
{"type":"Feature","properties":{"city":"suva","type":"school","name":"Holy Trinity Anglican Primary School","kind":"Primary school","street":"McGregor Road"},"geometry":{"type":"Point","coordinates":[178.43138,-18.14633]}},
{"type":"Feature","properties":{"city":"suva","type":"school","name":"Marist Brothers High School","kind":"Secondary school","street":"Laucala Bay Road"},"geometry":{"type":"Point","coordinates":[178.4355,-18.14592]}},
{"type":"Feature","properties":{"city":"suva","type":"school","name":"Suva Methodist Primary School","kind":"Primary school","street":"Eden Street"},"geometry":{"type":"Point","coordinates":[178.43344,-18.14142]}},
{"type":"Feature","properties":{"city":"suva","type":"school","name":"Dudley High School","kind":"Secondary school","street":"Eden Street"},"geometry":{"type":"Point","coordinates":[178.43137,-18.1423]}},
{"type":"Feature","properties":{"city":"suva","type":"school","name":"Draiba Primary School","kind":"Primary school","street":"Ratu Sukuna Road"},"geometry":{"type":"Point","coordinates":[178.43216,-18.15639]}},
{"type":"Feature","properties":{"city":"suva","type":"school","name":"Marist Primary School","kind":"Primary school","street":"Suva Street"},"geometry":{"type":"Point","coordinates":[178.42887,-18.13941]}},
{"type":"Feature","properties":{"city":"suva","type":"school","name":"Nehru Primary School","kind":"Primary school","street":"Huon Street"},"geometry":{"type":"Point","coordinates":[178.43556,-18.14063]}},
{"type":"Feature","properties":{"city":"suva","type":"school","name":"Saint Anne's Primary School","kind":"Primary school","street":"Pratt Street"},"geometry":{"type":"Point","coordinates":[178.42575,-18.14072]}},
{"type":"Feature","properties":{"city":"suva","type":"school","name":"Saint Joseph's High School","kind":"Secondary school","street":"Waimanu Road"},"geometry":{"type":"Point","coordinates":[178.4365,-18.13172]}},
{"type":"Feature","properties":{"city":"suva","type":"school","name":"Deenbandhu Primary School","kind":"Primary school","street":"Tawake Street"},"geometry":{"type":"Point","coordinates":[178.43793,-18.13447]}},
{"type":"Feature","properties":{"city":"suva","type":"school","name":"Jai Narayan College","kind":"Secondary school","street":"Tawake Street"},"geometry":{"type":"Point","coordinates":[178.43955,-18.13443]}},
{"type":"Feature","properties":{"city":"suva","type":"school","name":"Indira Ghandi Memorial Primary School","kind":"Primary school","street":"Ritova Street"},"geometry":{"type":"Point","coordinates":[178.43752,-18.14043]}},
{"type":"Feature","properties":{"city":"suva","type":"school","name":"Gospel Primary and High Schools","kind":"Primary school","street":"Dhanji Street"},"geometry":{"type":"Point","coordinates":[178.44455,-18.13045]}}
]}
