{"type":"FeatureCollection","features":[
{"type":"Feature","properties":{"city":"parramatta","name":"Parramatta CBD","tree_cover_pct":9,"age65_pct":11,"schools":3,"aged_care":2,"offset":1.4,"population":30200},"geometry":{"type":"Polygon","coordinates":[[[150.9985,-33.8118],[151.006,-33.8112],[151.0128,-33.8125],[151.0122,-33.8172],[151.005,-33.8182],[150.999,-33.817],[150.9985,-33.8118]]]}},
{"type":"Feature","properties":{"city":"parramatta","name":"Harris Park","tree_cover_pct":14,"age65_pct":13,"schools":2,"aged_care":3,"offset":0.9,"population":5500},"geometry":{"type":"Polygon","coordinates":[[[151.0055,-33.819],[151.013,-33.8178],[151.0165,-33.8225],[151.012,-33.8275],[151.005,-33.8262],[151.0055,-33.819]]]}},
{"type":"Feature","properties":{"city":"parramatta","name":"Westmead","tree_cover_pct":18,"age65_pct":15,"schools":2,"aged_care":4,"offset":0.4,"population":16600},"geometry":{"type":"Polygon","coordinates":[[[150.98,-33.803],[150.9905,-33.801],[150.9945,-33.8075],[150.992,-33.8125],[150.9815,-33.8118],[150.98,-33.803]]]}},
{"type":"Feature","properties":{"city":"parramatta","name":"North Parramatta","tree_cover_pct":24,"age65_pct":19,"schools":3,"aged_care":5,"offset":-0.3,"population":12400},"geometry":{"type":"Polygon","coordinates":[[[150.9995,-33.7985],[151.0085,-33.7975],[151.0115,-33.804],[151.009,-33.8098],[151,-33.81],[150.9995,-33.7985]]]}},
{"type":"Feature","properties":{"city":"melbourne","name":"Melbourne CBD","tree_cover_pct":8,"age65_pct":6,"schools":4,"aged_care":2,"offset":1.2,"population":54900},"geometry":{"type":"Polygon","coordinates":[[[144.955,-37.8211],[144.9735,-37.8157],[144.9718,-37.8093],[144.9522,-37.8143],[144.955,-37.8211]]]}},
{"type":"Feature","properties":{"city":"melbourne","name":"Southbank","tree_cover_pct":7,"age65_pct":7,"schools":2,"aged_care":1,"offset":1,"population":22600},"geometry":{"type":"Polygon","coordinates":[[[144.94691,-37.82704],[144.94959,-37.83017],[144.95276,-37.82823],[144.95407,-37.83108],[144.96279,-37.82858],[144.96585,-37.83148],[144.97132,-37.8299],[144.97115,-37.82565],[144.96826,-37.81925],[144.96171,-37.8204],[144.95599,-37.82304],[144.95666,-37.82451],[144.95595,-37.82471],[144.95623,-37.82532],[144.95308,-37.8274],[144.95001,-37.8271],[144.94904,-37.82765],[144.94915,-37.82702],[144.94691,-37.82704]]]}},
{"type":"Feature","properties":{"city":"melbourne","name":"Docklands","tree_cover_pct":5,"age65_pct":6,"schools":1,"aged_care":0,"offset":0.4,"population":15500},"geometry":{"type":"Polygon","coordinates":[[[144.93113,-37.82171],[144.93785,-37.82312],[144.9377,-37.82365],[144.94036,-37.82595],[144.94915,-37.82702],[144.94752,-37.82662],[144.94805,-37.82605],[144.94887,-37.82606],[144.94836,-37.82336],[144.95306,-37.82371],[144.95599,-37.82304],[144.95143,-37.81316],[144.95033,-37.81347],[144.94783,-37.81094],[144.94307,-37.81276],[144.93975,-37.81092],[144.93551,-37.80961],[144.93489,-37.80983],[144.93435,-37.81407],[144.93365,-37.81453],[144.93113,-37.82171]]]}},
{"type":"Feature","properties":{"city":"melbourne","name":"Carlton","tree_cover_pct":22,"age65_pct":9,"schools":5,"aged_care":3,"offset":0.3,"population":18900},"geometry":{"type":"Polygon","coordinates":[[[144.95847,-37.80193],[144.96009,-37.80544],[144.95994,-37.80634],[144.9732,-37.80791],[144.97572,-37.79305],[144.96839,-37.79226],[144.96699,-37.79312],[144.9652,-37.79315],[144.96398,-37.80043],[144.95883,-37.79986],[144.95847,-37.80193]]]}},
{"type":"Feature","properties":{"city":"london","name":"City of London","tree_cover_pct":6,"age65_pct":13,"schools":3,"aged_care":1,"offset":1.1,"population":8600},"geometry":{"type":"Polygon","coordinates":[[[-0.11383,51.51826],[-0.11184,51.51579],[-0.11108,51.51383],[-0.11196,51.5137],[-0.11173,51.51319],[-0.11253,51.51273],[-0.11158,51.5118],[-0.11147,51.50977],[-0.10463,51.50987],[-0.10468,51.50841],[-0.10415,51.50855],[-0.10415,51.50986],[-0.09932,51.50967],[-0.08021,51.50687],[-0.07873,51.50883],[-0.0791,51.50906],[-0.07884,51.50946],[-0.07788,51.51008],[-0.07624,51.51056],[-0.07554,51.50973],[-0.07277,51.51037],[-0.07363,51.51409],[-0.07693,51.51665],[-0.07813,51.51898],[-0.07944,51.51888],[-0.07855,51.52151],[-0.08105,51.52195],[-0.08176,51.52076],[-0.08333,51.51981],[-0.08526,51.52035],[-0.08623,51.51881],[-0.08998,51.51997],[-0.08979,51.52072],[-0.09434,51.52148],[-0.09512,51.52311],[-0.09644,51.52283],[-0.09678,51.52331],[-0.09797,51.52287],[-0.09738,51.52178],[-0.09769,51.52071],[-0.10785,51.51776],[-0.11383,51.51826]]]}},
{"type":"Feature","properties":{"city":"london","name":"Bankside","tree_cover_pct":11,"age65_pct":10,"schools":4,"aged_care":2,"offset":0.8,"population":14200},"geometry":{"type":"Polygon","coordinates":[[[-0.1085,51.5035],[-0.0895,51.504],[-0.089,51.5075],[-0.099,51.5085],[-0.108,51.5082],[-0.1085,51.5035]]]}},
{"type":"Feature","properties":{"city":"london","name":"Covent Garden","tree_cover_pct":7,"age65_pct":12,"schools":2,"aged_care":2,"offset":1,"population":6900},"geometry":{"type":"Polygon","coordinates":[[[-0.1285,51.5095],[-0.1185,51.51],[-0.1175,51.515],[-0.127,51.5155],[-0.1285,51.5095]]]}},
{"type":"Feature","properties":{"city":"london","name":"Shoreditch","tree_cover_pct":9,"age65_pct":8,"schools":5,"aged_care":3,"offset":0.6,"population":23400},"geometry":{"type":"Polygon","coordinates":[[[-0.085,51.5225],[-0.072,51.5222],[-0.0712,51.5285],[-0.0845,51.529],[-0.085,51.5225]]]}},
{"type":"Feature","properties":{"city":"sydney","name":"Sydney CBD","tree_cover_pct":10,"age65_pct":9,"schools":2,"aged_care":1,"offset":0.9,"population":17300},"geometry":{"type":"Polygon","coordinates":[[[151.2045,-33.863],[151.211,-33.8625],[151.2132,-33.869],[151.2125,-33.877],[151.2062,-33.8775],[151.204,-33.87],[151.2045,-33.863]]]}},
{"type":"Feature","properties":{"city":"sydney","name":"The Rocks","tree_cover_pct":15,"age65_pct":21,"schools":1,"aged_care":2,"offset":0.2,"population":1200},"geometry":{"type":"Polygon","coordinates":[[[151.2054,-33.86296],[151.2074,-33.86329],[151.20819,-33.86123],[151.20976,-33.86115],[151.21057,-33.85687],[151.20964,-33.85697],[151.20918,-33.85609],[151.21063,-33.85554],[151.20975,-33.85422],[151.20994,-33.85524],[151.20875,-33.85569],[151.20671,-33.85908],[151.2054,-33.86296]]]}},
{"type":"Feature","properties":{"city":"sydney","name":"Barangaroo","tree_cover_pct":18,"age65_pct":8,"schools":0,"aged_care":0,"offset":-0.1,"population":2100},"geometry":{"type":"Polygon","coordinates":[[[151.20002,-33.85714],[151.20115,-33.86583],[151.20188,-33.86579],[151.20319,-33.86522],[151.20264,-33.85816],[151.2019,-33.85811],[151.20155,-33.8571],[151.20169,-33.85654],[151.2027,-33.85627],[151.20266,-33.85525],[151.20019,-33.85539],[151.20002,-33.85714]]]}},
{"type":"Feature","properties":{"city":"sydney","name":"Haymarket","tree_cover_pct":6,"age65_pct":7,"schools":2,"aged_care":1,"offset":1.3,"population":8800},"geometry":{"type":"Polygon","coordinates":[[[151.19973,-33.87751],[151.20291,-33.88377],[151.2038,-33.88365],[151.20311,-33.88483],[151.20386,-33.8853],[151.20719,-33.88559],[151.20714,-33.88504],[151.20831,-33.8836],[151.20927,-33.87839],[151.20263,-33.87721],[151.19973,-33.87751]]]}},
{"type":"Feature","properties":{"city":"sydney","name":"Surry Hills","tree_cover_pct":17,"age65_pct":11,"schools":4,"aged_care":4,"offset":0.7,"population":16600},"geometry":{"type":"Polygon","coordinates":[[[151.20186,-33.88906],[151.20779,-33.8899],[151.21176,-33.8914],[151.21685,-33.89211],[151.21825,-33.88552],[151.21706,-33.88116],[151.21487,-33.88086],[151.21504,-33.88006],[151.21394,-33.87965],[151.21428,-33.87848],[151.21213,-33.8769],[151.21124,-33.87822],[151.20911,-33.87978],[151.20831,-33.8836],[151.20685,-33.88608],[151.20186,-33.88906]]]}},
{"type":"Feature","properties":{"city":"suva","name":"Suva CBD","tree_cover_pct":9,"age65_pct":6,"schools":3,"aged_care":1,"offset":1,"population":9800},"geometry":{"type":"Polygon","coordinates":[[[178.4205,-18.144],[178.4265,-18.1448],[178.429,-18.1395],[178.425,-18.1365],[178.4215,-18.1385],[178.4205,-18.144]]]}},
{"type":"Feature","properties":{"city":"suva","name":"Toorak","tree_cover_pct":16,"age65_pct":7,"schools":4,"aged_care":2,"offset":0.6,"population":7400},"geometry":{"type":"Polygon","coordinates":[[[178.43,-18.1425],[178.4365,-18.142],[178.437,-18.1365],[178.4305,-18.136],[178.43,-18.1425]]]}},
{"type":"Feature","properties":{"city":"suva","name":"Walu Bay","tree_cover_pct":4,"age65_pct":5,"schools":0,"aged_care":0,"offset":1.4,"population":1900},"geometry":{"type":"Polygon","coordinates":[[[178.4235,-18.1355],[178.43,-18.135],[178.431,-18.1328],[178.424,-18.1325],[178.4235,-18.1355]]]}},
{"type":"Feature","properties":{"city":"suva","name":"Raiwaqa","tree_cover_pct":12,"age65_pct":5,"schools":5,"aged_care":1,"offset":0.8,"population":12600},"geometry":{"type":"Polygon","coordinates":[[[178.445,-18.1385],[178.4535,-18.138],[178.454,-18.131],[178.4455,-18.1305],[178.445,-18.1385]]]}}
]}
